start=new Date('2022-11-13T00:00:00.000Z').valueOf();
sats=[{"ECCENTRICITY":"0.00026100","SITE":"AFETR","GP_ID":"217590369","LAUNCH_DATE":"2022-10-20","TLE_LINE2":"2 54103  53.2155  32.5201 0002610  11.7528 169.4167 15.73211024  1306","MEAN_ANOMALY":"169.4167","RCS_SIZE":"LARGE","MEAN_MOTION":"15.73211024","EPHEMERIS_TYPE":"0","REV_AT_EPOCH":"130","CLASSIFICATION_TYPE":"U","ARG_OF_PERICENTER":"11.7528","RA_OF_ASC_NODE":"32.5201","DECAY_DATE":null,"EPOCH":"2022-11-12T22:00:00.999936","PERIOD":"91.533","SEMIMAJOR_AXIS":"6727.864","MEAN_ELEMENT_THEORY":"SGP4","REF_FRAME":"TEME","TIME_SYSTEM":"UTC","APOAPSIS":"351.485","NORAD_CAT_ID":"54103","PERIAPSIS":"347.973","TLE_LINE1":"1 54103U 22136BE  22316.91667824 -.00057760  00000-0 -40966-3 0  9999","MEAN_MOTION_DOT":"-0.00057760","MEAN_MOTION_DDOT":"0.0000000000000","COUNTRY_CODE":"US","CENTER_NAME":"EARTH","FILE":"3652635","OBJECT_NAME":"STARLINK-5200","OBJECT_ID":"2022-136BE","INCLINATION":"53.2155","OBJECT_TYPE":"PAYLOAD","BSTAR":"-0.00040966000000","ELEMENT_SET_NO":"999"},{"DECAY_DATE":null,"EPOCH":"2022-11-12T22:00:00.999936","RA_OF_ASC_NODE":"32.5217","ARG_OF_PERICENTER":"12.9643","CLASSIFICATION_TYPE":"U","REV_AT_EPOCH":"130","EPHEMERIS_TYPE":"0","MEAN_MOTION":"15.73232000","RCS_SIZE":"LARGE","MEAN_ANOMALY":"168.8377","TLE_LINE2":"2 54104  53.2163  32.5217 0002789  12.9643 168.8377 15.73232000  1304","GP_ID":"217589454","LAUNCH_DATE":"2022-10-20","SITE":"AFETR","ECCENTRICITY":"0.00027890","OBJECT_TYPE":"PAYLOAD","ELEMENT_SET_NO":"999","BSTAR":"-0.00062369000000","INCLINATION":"53.2163","OBJECT_NAME":"STARLINK-5203","OBJECT_ID":"2022-136BF","FILE":"3652635","CENTER_NAME":"EARTH","COUNTRY_CODE":"US","MEAN_MOTION_DDOT":"0.0000000000000","MEAN_MOTION_DOT":"-0.00087389","TLE_LINE1":"1 54104U 22136BF  22316.91667824 -.00087389  00000-0 -62369-3 0  9991","PERIAPSIS":"347.793","NORAD_CAT_ID":"54104","APOAPSIS":"351.545","TIME_SYSTEM":"UTC","REF_FRAME":"TEME","MEAN_ELEMENT_THEORY":"SGP4","SEMIMAJOR_AXIS":"6727.804","PERIOD":"91.531"},{"LAUNCH_DATE":"2022-10-28","GP_ID":"217561471","SITE":"AFWTR","ECCENTRICITY":"0.00018200","RCS_SIZE":null,"MEAN_ANOMALY":"282.4856","TLE_LINE2":"2 54157  53.2200  65.3694 0001820  27.4171 282.4856 15.73262441  2521","REV_AT_EPOCH":"252","EPHEMERIS_TYPE":"0","MEAN_MOTION":"15.73262441","EPOCH":"2022-11-12T22:00:00.999936","DECAY_DATE":null,"RA_OF_ASC_NODE":"65.3694","ARG_OF_PERICENTER":"27.4171","CLASSIFICATION_TYPE":"U","SEMIMAJOR_AXIS":"6727.717","PERIOD":"91.530","TLE_LINE1":"1 54157U 22141A   22316.91667824 -.00111911  00000-0 -80138-3 0  9998","PERIAPSIS":"348.358","NORAD_CAT_ID":"54157","APOAPSIS":"350.807","TIME_SYSTEM":"UTC","REF_FRAME":"TEME","MEAN_ELEMENT_THEORY":"SGP4","OBJECT_ID":"2022-141A","OBJECT_NAME":"STARLINK-5290","FILE":"3652445","CENTER_NAME":"EARTH","COUNTRY_CODE":"US","MEAN_MOTION_DOT":"-0.00111911","MEAN_MOTION_DDOT":"0.0000000000000","BSTAR":"-0.00080138000000","OBJECT_TYPE":"PAYLOAD","ELEMENT_SET_NO":"999","INCLINATION":"53.2200"},{"SITE":"AFWTR","ECCENTRICITY":"0.00024610","LAUNCH_DATE":"2022-10-28","GP_ID":"217590478","MEAN_ANOMALY":"288.5185","TLE_LINE2":"2 54158  53.2183  65.3705 0002461  19.5610 288.5185 15.73234376  1300","RCS_SIZE":null,"MEAN_MOTION":"15.73234376","REV_AT_EPOCH":"130","EPHEMERIS_TYPE":"0","ARG_OF_PERICENTER":"19.5610","CLASSIFICATION_TYPE":"U","EPOCH":"2022-11-12T22:00:00.999936","DECAY_DATE":null,"RA_OF_ASC_NODE":"65.3705","SEMIMAJOR_AXIS":"6727.797","PERIOD":"91.531","APOAPSIS":"351.318","TIME_SYSTEM":"UTC","MEAN_ELEMENT_THEORY":"SGP4","REF_FRAME":"TEME","TLE_LINE1":"1 54158U 22141B   22316.91667824 -.00104715  00000-0 -74974-3 0  9994","PERIAPSIS":"348.006","NORAD_CAT_ID":"54158","CENTER_NAME":"EARTH","COUNTRY_CODE":"US","MEAN_MOTION_DDOT":"0.0000000000000","MEAN_MOTION_DOT":"-0.00104715","OBJECT_NAME":"STARLINK-5297","OBJECT_ID":"2022-141B","FILE":"3652635","BSTAR":"-0.00074974000000","OBJECT_TYPE":"PAYLOAD","ELEMENT_SET_NO":"999","INCLINATION":"53.2183"},{"INCLINATION":"53.2196","OBJECT_TYPE":"PAYLOAD","BSTAR":"-0.00045962000000","ELEMENT_SET_NO":"999","FILE":"3652635","OBJECT_ID":"2022-141C","OBJECT_NAME":"STARLINK-5294","MEAN_MOTION_DDOT":"0.0000000000000","MEAN_MOTION_DOT":"-0.00064716","COUNTRY_CODE":"US","CENTER_NAME":"EARTH","NORAD_CAT_ID":"54159","PERIAPSIS":"348.115","TLE_LINE1":"1 54159U 22141C   22316.91667824 -.00064716  00000-0 -45962-3 0  9996","REF_FRAME":"TEME","MEAN_ELEMENT_THEORY":"SGP4","TIME_SYSTEM":"UTC","APOAPSIS":"351.249","PERIOD":"91.532","SEMIMAJOR_AXIS":"6727.817","RA_OF_ASC_NODE":"65.3718","EPOCH":"2022-11-12T22:00:00.999936","DECAY_DATE":null,"CLASSIFICATION_TYPE":"U","ARG_OF_PERICENTER":"22.1446","EPHEMERIS_TYPE":"0","REV_AT_EPOCH":"130","MEAN_MOTION":"15.73227529","RCS_SIZE":null,"TLE_LINE2":"2 54159  53.2196  65.3718 0002329  22.1446 286.4948 15.73227529  1305","MEAN_ANOMALY":"286.4948","LAUNCH_DATE":"2022-10-28","GP_ID":"217590045","ECCENTRICITY":"0.00023290","SITE":"AFWTR"},{"OBJECT_NAME":"STARLINK-5233","OBJECT_ID":"2022-141D","FILE":"3652635","CENTER_NAME":"EARTH","COUNTRY_CODE":"US","MEAN_MOTION_DOT":"-0.00119835","MEAN_MOTION_DDOT":"0.0000000000000","ELEMENT_SET_NO":"999","OBJECT_TYPE":"PAYLOAD","BSTAR":"-0.00085926000000","INCLINATION":"53.2181","SEMIMAJOR_AXIS":"6727.721","PERIOD":"91.530","TLE_LINE1":"1 54160U 22141D   22316.91667824 -.00119835  00000-0 -85926-3 0  9995","PERIAPSIS":"348.214","NORAD_CAT_ID":"54160","APOAPSIS":"350.958","TIME_SYSTEM":"UTC","REF_FRAME":"TEME","MEAN_ELEMENT_THEORY":"SGP4","REV_AT_EPOCH":"130","EPHEMERIS_TYPE":"0","MEAN_MOTION":"15.73261169","DECAY_DATE":null,"EPOCH":"2022-11-12T22:00:00.999936","RA_OF_ASC_NODE":"65.3081","ARG_OF_PERICENTER":"23.1734","CLASSIFICATION_TYPE":"U","LAUNCH_DATE":"2022-10-28","GP_ID":"217590375","SITE":"AFWTR","ECCENTRICITY":"0.00020390","RCS_SIZE":"MEDIUM","MEAN_ANOMALY":"315.2715","TLE_LINE2":"2 54160  53.2181  65.3081 0002039  23.1734 315.2715 15.73261169  1304"},{"INCLINATION":"53.2179","OBJECT_TYPE":"PAYLOAD","BSTAR":"-0.00073812000000","ELEMENT_SET_NO":"999","OBJECT_NAME":"STARLINK-5269","OBJECT_ID":"2022-141E","FILE":"3652635","COUNTRY_CODE":"US","CENTER_NAME":"EARTH","MEAN_MOTION_DOT":"-0.00103321","MEAN_MOTION_DDOT":"0.0000000000000","TLE_LINE1":"1 54161U 22141E   22316.91667824 -.00103321  00000-0 -73812-3 0  9990","NORAD_CAT_ID":"54161","PERIAPSIS":"347.969","APOAPSIS":"351.090","REF_FRAME":"TEME","MEAN_ELEMENT_THEORY":"SGP4","TIME_SYSTEM":"UTC","PERIOD":"91.528","SEMIMAJOR_AXIS":"6727.665","DECAY_DATE":null,"EPOCH":"2022-11-12T22:00:00.999936","RA_OF_ASC_NODE":"65.3681","CLASSIFICATION_TYPE":"U","ARG_OF_PERICENTER":"17.8428","EPHEMERIS_TYPE":"0","REV_AT_EPOCH":"130","MEAN_MOTION":"15.73280907","RCS_SIZE":null,"MEAN_ANOMALY":"291.4375","TLE_LINE2":"2 54161  53.2179  65.3681 0002319  17.8428 291.4375 15.73280907  1307","GP_ID":"217589460","LAUNCH_DATE":"2022-10-28","ECCENTRICITY":"0.00023190","SITE":"AFWTR"},{"REV_AT_EPOCH":"130","EPHEMERIS_TYPE":"0","MEAN_MOTION":"15.73254258","RA_OF_ASC_NODE":"65.3658","DECAY_DATE":null,"EPOCH":"2022-11-12T22:00:00.999936","ARG_OF_PERICENTER":"25.1133","CLASSIFICATION_TYPE":"U","LAUNCH_DATE":"2022-10-28","GP_ID":"217590215","SITE":"AFWTR","ECCENTRICITY":"0.00019100","RCS_SIZE":"LARGE","TLE_LINE2":"2 54162  53.2182  65.3658 0001910  25.1133 285.3407 15.73254258  1305","MEAN_ANOMALY":"285.3407","FILE":"3652635","OBJECT_NAME":"STARLINK-5273","OBJECT_ID":"2022-141F","MEAN_MOTION_DOT":"-0.00104726","MEAN_MOTION_DDOT":"0.0000000000000","CENTER_NAME":"EARTH","COUNTRY_CODE":"US","BSTAR":"-0.00074926000000","OBJECT_TYPE":"PAYLOAD","ELEMENT_SET_NO":"999","INCLINATION":"53.2182","SEMIMAJOR_AXIS":"6727.740","PERIOD":"91.530","PERIAPSIS":"348.320","NORAD_CAT_ID":"54162","TLE_LINE1":"1 54162U 22141F   22316.91667824 -.00104726  00000-0 -74926-3 0  9998","TIME_SYSTEM":"UTC","REF_FRAME":"TEME","MEAN_ELEMENT_THEORY":"SGP4","APOAPSIS":"350.890"},{"MEAN_ANOMALY":"295.4188","TLE_LINE2":"2 54163  53.2180  65.3593 0002278  18.6007 295.4188 15.73267750  1306","RCS_SIZE":"MEDIUM","SITE":"AFWTR","ECCENTRICITY":"0.00022780","GP_ID":"217589630","LAUNCH_DATE":"2022-10-28","ARG_OF_PERICENTER":"18.6007","CLASSIFICATION_TYPE":"U","EPOCH":"2022-11-12T22:00:00.999936","DECAY_DATE":null,"RA_OF_ASC_NODE":"65.3593","MEAN_MOTION":"15.73267750","REV_AT_EPOCH":"130","EPHEMERIS_TYPE":"0","APOAPSIS":"351.100","TIME_SYSTEM":"UTC","REF_FRAME":"TEME","MEAN_ELEMENT_THEORY":"SGP4","TLE_LINE1":"1 54163U 22141G   22316.91667824 -.00115270  00000-0 -82564-3 0  9992","PERIAPSIS":"348.034","NORAD_CAT_ID":"54163","SEMIMAJOR_AXIS":"6727.702","PERIOD":"91.529","OBJECT_TYPE":"PAYLOAD","ELEMENT_SET_NO":"999","BSTAR":"-0.00082564000000","INCLINATION":"53.2180","CENTER_NAME":"EARTH","COUNTRY_CODE":"US","MEAN_MOTION_DOT":"-0.00115270","MEAN_MOTION_DDOT":"0.0000000000000","OBJECT_ID":"2022-141G","OBJECT_NAME":"STARLINK-5161","FILE":"3652635"},{"PERIAPSIS":"348.091","NORAD_CAT_ID":"54164","TLE_LINE1":"1 54164U 22141H   22316.91667824 -.00129282  00000-0 -92776-3 0  9997","TIME_SYSTEM":"UTC","MEAN_ELEMENT_THEORY":"SGP4","REF_FRAME":"TEME","APOAPSIS":"350.996","SEMIMAJOR_AXIS":"6727.678","PERIOD":"91.529","ELEMENT_SET_NO":"999","OBJECT_TYPE":"PAYLOAD","BSTAR":"-0.00092776000000","INCLINATION":"53.2180","FILE":"3652635","OBJECT_NAME":"STARLINK-5278","OBJECT_ID":"2022-141H","MEAN_MOTION_DOT":"-0.00129282","MEAN_MOTION_DDOT":"0.0000000000000","CENTER_NAME":"EARTH","COUNTRY_CODE":"US","RCS_SIZE":null,"TLE_LINE2":"2 54164  53.2180  65.3601 0002159  28.1386 285.2688 15.73276150  1307","MEAN_ANOMALY":"285.2688","GP_ID":"217590639","LAUNCH_DATE":"2022-10-28","SITE":"AFWTR","ECCENTRICITY":"0.00021590","RA_OF_ASC_NODE":"65.3601","DECAY_DATE":null,"EPOCH":"2022-11-12T22:00:00.999936","ARG_OF_PERICENTER":"28.1386","CLASSIFICATION_TYPE":"U","REV_AT_EPOCH":"130","EPHEMERIS_TYPE":"0","MEAN_MOTION":"15.73276150"}];
